[{"OBJECT_NAME":"STARLINK-30165","OBJECT_ID":"2023-107A","EPOCH":"2026-03-09T03:47:33.839520","MEAN_MOTION":15.26736421,"ECCENTRICITY":0.00014984,"INCLINATION":42.9999,"RA_OF_ASC_NODE":339.2931,"ARG_OF_PERICENTER":275.8397,"MEAN_ANOMALY":84.2284,"EPHEMERIS_TYPE":0,"CLASSIFICATION_TYPE":"U","NORAD_CAT_ID":57457,"ELEMENT_SET_NO":999,"REV_AT_EPOCH":14505,"BSTAR":7.0020691e-5,"MEAN_MOTION_DOT":1.619e-5,"MEAN_MOTION_DDOT":0},{"OBJECT_NAME":"OTTER","OBJECT_ID":"2025-009Q","EPOCH":"2026-03-09T17:21:07.902432","MEAN_MOTION":15.27809545,"ECCENTRICITY":0.00035728,"INCLINATION":97.4065,"RA_OF_ASC_NODE":151.3812,"ARG_OF_PERICENTER":310.771,"MEAN_ANOMALY":49.3219,"EPHEMERIS_TYPE":0,"CLASSIFICATION_TYPE":"U","NORAD_CAT_ID":62623,"ELEMENT_SET_NO":999,"REV_AT_EPOCH":6372,"BSTAR":0.00045151206,"MEAN_MOTION_DOT":0.00012198,"MEAN_MOTION_DDOT":0}]
