STARLINK-30165          
1 57457U 23107A   26068.15803055  .00001619  00000+0  70021-4 0  9990
2 57457  42.9999 339.2931 0001498 275.8397  84.2284 15.26736421145055
OTTER                   
1 62623U 25009Q   26068.72300813  .00012198  00000+0  45151-3 0  9990
2 62623  97.4065 151.3812 0003573 310.7710  49.3219 15.27809545 63722
